{
  "type": "FeatureCollection",
  "features": [
    {
      "type": "Feature",
      "properties": {
        "norad_id": 19071,
        "name": "OSCAR 32",
        "group": "nnss",
        "lat": 19.236042948931548,
        "lon": 16.195900356268037,
        "alt_km": 1292.188293825764,
        "timestamp": "2025-12-05T18:53:13.550662+00:00",
        "meta_object_name": "OSCAR 32",
        "meta_object_id": "1988-033B",
        "meta_epoch": "2025-12-05T07:59:59.138304",
        "meta_mean_motion": 13.27952619,
        "meta_eccentricity": 0.01877323,
        "meta_inclination": 90.3225,
        "meta_ra_of_asc_node": 16.2943,
        "meta_arg_of_pericenter": 187.3865,
        "meta_mean_anomaly": 185.0338,
        "meta_ephemeris_type": 0,
        "meta_classification_type": "U",
        "meta_norad_cat_id": 19071,
        "meta_element_set_no": 999,
        "meta_rev_at_epoch": 82167,
        "meta_bstar": 0.00027501164,
        "meta_mean_motion_dot": 1.45e-06,
        "meta_mean_motion_ddot": 0,
        "tle_line1": "1 19071U 88033B   25339.33332336  .00000145  00000+0  27501-3 0  9995",
        "tle_line2": "2 19071  90.3225  16.2943 0187732 187.3865 185.0338 13.27952619821679"
      },
      "geometry": {
        "type": "Point",
        "coordinates": [
          16.195900356268037,
          19.236042948931548
        ]
      }
    },
    {
      "type": "Feature",
      "properties": {
        "norad_id": 19223,
        "name": "NOVA 2",
        "group": "nnss",
        "lat": -17.909720144478452,
        "lon": 78.27685557830881,
        "alt_km": 1164.3671424805043,
        "timestamp": "2025-12-05T18:53:13.550672+00:00",
        "meta_object_name": "NOVA 2",
        "meta_object_id": "1988-052A",
        "meta_epoch": "2025-12-05T06:21:14.929632",
        "meta_mean_motion": 13.22934582,
        "meta_eccentricity": 0.00311815,
        "meta_inclination": 89.9873,
        "meta_ra_of_asc_node": 78.2816,
        "meta_arg_of_pericenter": 36.996,
        "meta_mean_anomaly": 339.8907,
        "meta_ephemeris_type": 0,
        "meta_classification_type": "U",
        "meta_norad_cat_id": 19223,
        "meta_element_set_no": 999,
        "meta_rev_at_epoch": 80849,
        "meta_bstar": 0.00018384868,
        "meta_mean_motion_dot": 8.6e-07,
        "meta_mean_motion_ddot": 0,
        "tle_line1": "1 19223U 88052A   25339.26475613  .00000086  00000+0  18385-3 0  9997",
        "tle_line2": "2 19223  89.9873  78.2816 0031181  36.9960 339.8907 13.22934582808499"
      },
      "geometry": {
        "type": "Point",
        "coordinates": [
          78.27685557830881,
          -17.909720144478452
        ]
      }
    },
    {
      "type": "Feature",
      "properties": {
        "norad_id": 19419,
        "name": "OSCAR 25",
        "group": "nnss",
        "lat": -73.0648971221367,
        "lon": 20.337186422331524,
        "alt_km": 1041.0128634371085,
        "timestamp": "2025-12-05T18:53:13.550682+00:00",
        "meta_object_name": "OSCAR 25",
        "meta_object_id": "1988-074A",
        "meta_epoch": "2025-12-05T03:15:50.948640",
        "meta_mean_motion": 13.42621213,
        "meta_eccentricity": 0.00942382,
        "meta_inclination": 90.0353,
        "meta_ra_of_asc_node": 20.2189,
        "meta_arg_of_pericenter": 267.9325,
        "meta_mean_anomaly": 114.1598,
        "meta_ephemeris_type": 0,
        "meta_classification_type": "U",
        "meta_norad_cat_id": 19419,
        "meta_element_set_no": 999,
        "meta_rev_at_epoch": 82538,
        "meta_bstar": 0.00029598365,
        "meta_mean_motion_dot": 1.8e-06,
        "meta_mean_motion_ddot": 0,
        "tle_line1": "1 19419U 88074A   25339.13600635  .00000180  00000+0  29598-3 0  9991",
        "tle_line2": "2 19419  90.0353  20.2189 0094238 267.9325 114.1598 13.42621213825388"
      },
      "geometry": {
        "type": "Point",
        "coordinates": [
          20.337186422331524,
          -73.0648971221367
        ]
      }
    },
    {
      "type": "Feature",
      "properties": {
        "norad_id": 19420,
        "name": "OSCAR 31",
        "group": "nnss",
        "lat": 9.624053091625019,
        "lon": -159.4237451408605,
        "alt_km": 1100.5430744049136,
        "timestamp": "2025-12-05T18:53:13.550692+00:00",
        "meta_object_name": "OSCAR 31",
        "meta_object_id": "1988-074B",
        "meta_epoch": "2025-12-05T04:02:48.420672",
        "meta_mean_motion": 13.42582836,
        "meta_eccentricity": 0.00924906,
        "meta_inclination": 90.037,
        "meta_ra_of_asc_node": 20.5677,
        "meta_arg_of_pericenter": 261.9459,
        "meta_mean_anomaly": 162.4907,
        "meta_ephemeris_type": 0,
        "meta_classification_type": "U",
        "meta_norad_cat_id": 19420,
        "meta_element_set_no": 999,
        "meta_rev_at_epoch": 82549,
        "meta_bstar": 0.00024739882,
        "meta_mean_motion_dot": 1.52e-06,
        "meta_mean_motion_ddot": 0,
        "tle_line1": "1 19420U 88074B   25339.16861598  .00000152  00000+0  24740-3 0  9996",
        "tle_line2": "2 19420  90.0370  20.5677 0092490 261.9459 162.4907 13.42582836825493"
      },
      "geometry": {
        "type": "Point",
        "coordinates": [
          -159.4237451408605,
          9.624053091625019
        ]
      }
    }
  ]
}